[{"OBJECT_NAME":"GAOFEN-5 01A","OBJECT_ID":"2022-165A","EPOCH":"2026-03-09T23:48:04.634784","MEAN_MOTION":14.5780943,"ECCENTRICITY":6.342e-5,"INCLINATION":98.2281,"RA_OF_ASC_NODE":7.3832,"ARG_OF_PERICENTER":37.2701,"MEAN_ANOMALY":322.8541,"EPHEMERIS_TYPE":0,"CLASSIFICATION_TYPE":"U","NORAD_CAT_ID":54640,"ELEMENT_SET_NO":999,"REV_AT_EPOCH":17296,"BSTAR":0.00017296307,"MEAN_MOTION_DOT":7.46e-6,"MEAN_MOTION_DDOT":0},{"OBJECT_NAME":"NOAA 16 DEB","OBJECT_ID":"2000-055L","EPOCH":"2026-03-09T13:52:40.299744","MEAN_MOTION":14.53425609,"ECCENTRICITY":0.00249293,"INCLINATION":99.0021,"RA_OF_ASC_NODE":284.5287,"ARG_OF_PERICENTER":47.9876,"MEAN_ANOMALY":312.3435,"EPHEMERIS_TYPE":0,"CLASSIFICATION_TYPE":"U","NORAD_CAT_ID":41053,"ELEMENT_SET_NO":999,"REV_AT_EPOCH":53589,"BSTAR":0.0020716608,"MEAN_MOTION_DOT":8.619e-5,"MEAN_MOTION_DDOT":0}]
